1 56488U 23064AS  25332.10517476  .00001040  00000+0  94919-4 0  9992
2 56488  69.9996   0.6887 0003139 268.7399  91.3401 14.98329662141015
